OBJECT_NAME,OBJECT_ID,EPOCH,MEAN_MOTION,ECCENTRICITY,INCLINATION,RA_OF_ASC_NODE,ARG_OF_PERICENTER,MEAN_ANOMALY,EPHEMERIS_TYPE,CLASSIFICATION_TYPE,NORAD_CAT_ID,ELEMENT_SET_NO,REV_AT_EPOCH,BSTAR,MEAN_MOTION_DOT,MEAN_MOTION_DDOT
STARLINK-33774,2025-087AA,2025-05-07T22:00:01.999584,15.92950075,.0000705,53.1554,211.1665,57.6736,28.8081,0,U,63721,999,146,-.34233E-2,-.1220872E-1,.44368E-3
STARLINK-33767,2025-087AB,2025-05-07T22:00:01.999584,15.92690611,.0000835,53.1556,211.1851,51.6914,25.9004,0,U,63722,999,147,-.33679E-2,-.1185298E-1,.41939E-3
STARLINK-33806,2025-087AC,2025-05-07T22:00:01.999584,15.92821075,.0000803,53.1554,211.1760,52.4843,29.5123,0,U,63723,999,147,-.34059E-2,-.1206646E-1,.43377E-3
KUIPER-00008,2025-088A,2025-05-08T04:00:00.999936,15.34318742,.0010393,51.8608,53.5581,146.7590,357.2869,0,U,63724,999,204,.10153E-2,.34077E-3,0
KUIPER-00009,2025-088B,2025-05-08T04:00:00.999936,15.34579255,.000981,51.8645,53.5423,143.5564,8.3564,0,U,63725,999,204,.10253E-2,.34702E-3,0
KUIPER-00010,2025-088C,2025-05-08T04:00:00.999936,15.34488394,.0009813,51.8660,53.5473,144.6269,4.8830,0,U,63726,999,165,.10226E-2,.34508E-3,0
KUIPER-00011,2025-088D,2025-05-08T04:00:00.999936,15.33875741,.0011843,51.8592,53.5862,151.0819,338.8076,0,U,63727,999,180,.99298E-3,.32862E-3,0
KUIPER-00012,2025-088E,2025-05-07T22:00:01.999584,15.33987078,.0011402,51.8578,54.7816,152.0019,39.4384,0,U,63728,999,171,-.48382E-3,-.16532E-3,0
KUIPER-00013,2025-088F,2025-05-07T22:00:01.999584,15.34255830,.0010755,51.8619,54.7650,146.1592,53.8877,0,U,63729,999,181,-.46799E-3,-.16135E-3,0
KUIPER-00014,2025-088G,2025-05-08T04:00:00.999936,15.33774333,.0011889,51.8608,53.5933,154.6260,332.0007,0,U,63730,999,165,.98659E-3,.32541E-3,0
KUIPER-00015,2025-088H,2025-05-07T22:00:01.999584,15.34150431,.0011403,51.8633,54.7743,150.9245,44.6844,0,U,63731,999,208,-.47448E-3,-.16304E-3,0
KUIPER-00016,2025-088J,2025-05-08T04:00:00.999936,15.34667649,.0009121,51.8636,53.5354,142.4411,13.0330,0,U,63732,999,165,.10298E-2,.34949E-3,0
KUIPER-00018,2025-088K,2025-05-08T04:00:00.999936,15.35284781,.0006664,51.8692,53.4916,129.4623,46.8121,0,U,63733,999,165,.1047E-2,.36236E-3,0
KUIPER-00019,2025-088L,2025-05-07T22:00:01.999584,15.35670595,.0004789,51.8699,54.6720,125.8111,119.1848,0,U,63734,999,130,-.42501E-3,-.15329E-3,0
KUIPER-00020,2025-088M,2025-05-08T04:00:00.999936,15.35193156,.0006741,51.8702,53.4970,135.4805,37.8574,0,U,63735,999,187,.1045E-2,.36059E-3,0
KUIPER-00021,2025-088N,2025-05-07T22:00:01.999584,15.35026179,.000761,51.8657,54.7151,138.8276,85.8646,0,U,63736,999,166,-.43727E-3,-.15455E-3,0
KUIPER-00023,2025-088P,2025-05-08T04:00:00.999936,15.34926877,.000854,51.8669,53.5181,135.5113,28.2958,0,U,63737,999,200,.10385E-2,.35539E-3,0
KUIPER-00024,2025-088Q,2025-05-08T04:00:00.999936,15.36576690,.000173,51.8737,53.3959,94.4729,124.6957,0,U,63738,999,213,.10311E-2,.37185E-3,0
KUIPER-00025,2025-088R,2025-05-08T04:00:00.999936,15.35384363,.0006028,51.8682,53.4859,132.1536,47.2915,0,U,63739,999,199,.10477E-2,.36373E-3,0
KUIPER-00027,2025-088S,2025-05-07T22:00:01.999584,15.36189321,.0003342,51.8732,54.6300,127.9955,134.2677,0,U,63740,999,168,-.42503E-3,-.15579E-3,0
KUIPER-00028,2025-088T,2025-05-07T22:00:01.999584,15.36383626,.0002595,51.8725,54.6209,125.0068,143.3010,0,U,63741,999,209,-.4276E-3,-.15765E-3,0
KUIPER-00029,2025-088U,2025-05-08T04:00:00.999936,15.35518503,.0005583,51.8716,53.4736,129.5627,54.4023,0,U,63742,999,165,.1049E-2,.36575E-3,0
KUIPER-00030,2025-088V,2025-05-08T04:00:00.999936,15.34823986,.000863,51.8680,53.5245,140.2342,20.3118,0,U,63743,999,194,.1035E-2,.35301E-3,0
KUIPER-00031,2025-088W,2025-05-07T22:00:01.999584,15.35949162,.0004504,51.8719,54.6491,123.3079,131.4667,0,U,63744,999,158,-.42361E-3,-.15414E-3,0
KUIPER-00032,2025-088X,2025-05-08T04:00:00.999936,15.35629478,.0005638,51.8708,53.4651,121.6420,67.0160,0,U,63745,999,266,.10505E-2,.3676E-3,0
KUIPER-00033,2025-088Y,2025-05-07T22:00:01.999584,15.36677829,.0001278,51.8733,54.5987,119.0957,158.8067,0,U,63746,999,210,-.43354E-3,-.16125E-3,0
KUIPER-00034,2025-088Z,2025-05-07T22:00:01.999584,15.36498657,.0002069,51.8736,54.6066,121.3883,150.7038,0,U,63747,999,178,-.42944E-3,-.15888E-3,0
KUIPER-00035,2025-088AA,2025-05-07T22:00:01.999584,15.36052705,.0003884,51.8713,54.6438,128.9822,129.0857,0,U,63748,999,183,-.42406E-3,-.15479E-3,0
KUIPER-00037,2025-088AB,2025-05-08T04:00:00.999936,15.36244607,.0003059,51.8730,53.4206,112.1900,96.1026,0,U,63749,999,266,.10421E-2,.37186E-3,0
KUIPER-00038,2025-088AC,2025-05-07T22:00:01.999584,15.35872814,.000468,51.8724,54.6530,131.9859,120.2593,0,U,63750,999,130,-.42373E-3,-.15382E-3,0
